CSG-3                   
1 67304U 26001A   26011.64498861  .00000417  00000+0  59707-4 0  9998
2 67304  97.8614 197.5968 0004052 150.6968 209.4473 14.81534027  1272
STARLINK-36490          
1 67305U 26002A   26011.58335648 -.01204755  44745-3 -26480-2 0  9998
2 67305  42.9989 297.1360 0001836 259.1014 280.4679 15.97219014  2290
STARLINK-36488          
1 67306U 26002B   26011.58335648 -.01200865  44508-3 -26308-2 0  9993
2 67306  42.9990 297.1323 0001876 267.0043 273.9760 15.97277215  2235
STARLINK-36481          
1 67307U 26002C   26011.58335648 -.01221218  45978-3 -26508-2 0  9993
2 67307  42.9991 297.1234 0001806 264.8658 279.7208 15.97447403  2237
STARLINK-36449          
1 67308U 26002D   26011.58335648 -.01225271  46294-3 -26483-2 0  9991
2 67308  42.9990 297.1192 0001859 266.3091 279.9578 15.97524530  2291
STARLINK-36482          
1 67309U 26002E   26011.58335648 -.01243644  47772-3 -26286-2 0  9999
2 67309  42.9993 297.0974 0001838 261.1250 293.9740 15.97928583  2236
STARLINK-36491          
1 67310U 26002F   26011.58335648 -.01212040  45319-3 -26398-2 0  9996
2 67310  42.9992 297.1270 0001938 264.4313 278.7786 15.97384304  2232
STARLINK-36495          
1 67311U 26002G   26011.58335648 -.01234633  46986-3 -26557-2 0  9997
2 67311  42.9992 297.1142 0001774 264.5740 283.6417 15.97612782  2391
STARLINK-36485          
1 67312U 26002H   26011.58335648 -.01243332  47644-3 -26594-2 0  9997
2 67312  42.9991 297.1089 0001822 262.1980 288.1111 15.97714921  2237
STARLINK-36445          
1 67313U 26002J   26011.58335648 -.01247443  47958-3 -26607-2 0  9998
2 67313  42.9990 297.1059 0001879 261.1011 290.3687 15.97766204  2391
STARLINK-36476          
1 67314U 26002K   26011.58335648 -.01239268  47430-3 -26296-2 0  9994
2 67314  42.9993 297.1009 0001818 263.1755 290.3658 15.97858009  2236
STARLINK-36463          
1 67315U 26002L   26011.58335648 -.01242493  47730-3 -26147-2 0  9997
2 67315  42.9992 297.0922 0001916 258.7431 298.0631 15.98005836  2294
