CCSDS_OMM_VERS = 2.0
CREATION_DATE  = 
ORIGINATOR     = 

OBJECT_NAME    = CSG-3
OBJECT_ID      = 2026-001A
CENTER_NAME    = EARTH
REF_FRAME      = TEME
TIME_SYSTEM    = UTC
MEAN_ELEMENT_THEORY = SGP/SGP4

EPOCH          = 2026-01-11T15:28:47.015904
MEAN_MOTION    = 14.81534027
ECCENTRICITY   = .00040524
INCLINATION    = 97.8614
RA_OF_ASC_NODE = 197.5968
ARG_OF_PERICENTER = 150.6968
MEAN_ANOMALY   = 209.4473

EPHEMERIS_TYPE = 0
CLASSIFICATION_TYPE = U
NORAD_CAT_ID   = 67304
ELEMENT_SET_NO = 999
REV_AT_EPOCH   = 127
BSTAR          = .59707148E-4
MEAN_MOTION_DOT = .417E-5
MEAN_MOTION_DDOT = 0

CCSDS_OMM_VERS = 2.0
CREATION_DATE  = 
ORIGINATOR     = 

OBJECT_NAME    = STARLINK-36490
OBJECT_ID      = 2026-002A
CENTER_NAME    = EARTH
REF_FRAME      = TEME
TIME_SYSTEM    = UTC
MEAN_ELEMENT_THEORY = SGP/SGP4

EPOCH          = 2026-01-11T14:00:01.999872
MEAN_MOTION    = 15.97219014
ECCENTRICITY   = .00018364
INCLINATION    = 42.9989
RA_OF_ASC_NODE = 297.1360
ARG_OF_PERICENTER = 259.1014
MEAN_ANOMALY   = 280.4679

EPHEMERIS_TYPE = 0
CLASSIFICATION_TYPE = U
NORAD_CAT_ID   = 67305
ELEMENT_SET_NO = 999
REV_AT_EPOCH   = 229
BSTAR          = -.26480161E-2
MEAN_MOTION_DOT = -.1204755E-1
MEAN_MOTION_DDOT = .44745396E-3

CCSDS_OMM_VERS = 2.0
CREATION_DATE  = 
ORIGINATOR     = 

OBJECT_NAME    = STARLINK-36488
OBJECT_ID      = 2026-002B
CENTER_NAME    = EARTH
REF_FRAME      = TEME
TIME_SYSTEM    = UTC
MEAN_ELEMENT_THEORY = SGP/SGP4

EPOCH          = 2026-01-11T14:00:01.999872
MEAN_MOTION    = 15.97277215
ECCENTRICITY   = .0001876
INCLINATION    = 42.9990
RA_OF_ASC_NODE = 297.1323
ARG_OF_PERICENTER = 267.0043
MEAN_ANOMALY   = 273.9760

EPHEMERIS_TYPE = 0
CLASSIFICATION_TYPE = U
NORAD_CAT_ID   = 67306
ELEMENT_SET_NO = 999
REV_AT_EPOCH   = 223
BSTAR          = -.26308488E-2
MEAN_MOTION_DOT = -.1200865E-1
MEAN_MOTION_DDOT = .44508306E-3

CCSDS_OMM_VERS = 2.0
CREATION_DATE  = 
ORIGINATOR     = 

OBJECT_NAME    = STARLINK-36481
OBJECT_ID      = 2026-002C
CENTER_NAME    = EARTH
REF_FRAME      = TEME
TIME_SYSTEM    = UTC
MEAN_ELEMENT_THEORY = SGP/SGP4

EPOCH          = 2026-01-11T14:00:01.999872
MEAN_MOTION    = 15.97447403
ECCENTRICITY   = .00018068
INCLINATION    = 42.9991
RA_OF_ASC_NODE = 297.1234
ARG_OF_PERICENTER = 264.8658
MEAN_ANOMALY   = 279.7208

EPHEMERIS_TYPE = 0
CLASSIFICATION_TYPE = U
NORAD_CAT_ID   = 67307
ELEMENT_SET_NO = 999
REV_AT_EPOCH   = 223
BSTAR          = -.26508046E-2
MEAN_MOTION_DOT = -.1221218E-1
MEAN_MOTION_DDOT = .45977941E-3

CCSDS_OMM_VERS = 2.0
CREATION_DATE  = 
ORIGINATOR     = 

OBJECT_NAME    = STARLINK-36449
OBJECT_ID      = 2026-002D
CENTER_NAME    = EARTH
REF_FRAME      = TEME
TIME_SYSTEM    = UTC
MEAN_ELEMENT_THEORY = SGP/SGP4

EPOCH          = 2026-01-11T14:00:01.999872
MEAN_MOTION    = 15.97524530
ECCENTRICITY   = .00018599
INCLINATION    = 42.9990
RA_OF_ASC_NODE = 297.1192
ARG_OF_PERICENTER = 266.3091
MEAN_ANOMALY   = 279.9578

EPHEMERIS_TYPE = 0
CLASSIFICATION_TYPE = U
NORAD_CAT_ID   = 67308
ELEMENT_SET_NO = 999
REV_AT_EPOCH   = 229
BSTAR          = -.26482876E-2
MEAN_MOTION_DOT = -.1225271E-1
MEAN_MOTION_DDOT = .4629423E-3

CCSDS_OMM_VERS = 2.0
CREATION_DATE  = 
ORIGINATOR     = 

OBJECT_NAME    = STARLINK-36482
OBJECT_ID      = 2026-002E
CENTER_NAME    = EARTH
REF_FRAME      = TEME
TIME_SYSTEM    = UTC
MEAN_ELEMENT_THEORY = SGP/SGP4

EPOCH          = 2026-01-11T14:00:01.999872
MEAN_MOTION    = 15.97928583
ECCENTRICITY   = .00018388
INCLINATION    = 42.9993
RA_OF_ASC_NODE = 297.0974
ARG_OF_PERICENTER = 261.1250
MEAN_ANOMALY   = 293.9740

EPHEMERIS_TYPE = 0
CLASSIFICATION_TYPE = U
NORAD_CAT_ID   = 67309
ELEMENT_SET_NO = 999
REV_AT_EPOCH   = 223
BSTAR          = -.26285539E-2
MEAN_MOTION_DOT = -.1243644E-1
MEAN_MOTION_DDOT = .47771997E-3

CCSDS_OMM_VERS = 2.0
CREATION_DATE  = 
ORIGINATOR     = 

OBJECT_NAME    = STARLINK-36491
OBJECT_ID      = 2026-002F
CENTER_NAME    = EARTH
REF_FRAME      = TEME
TIME_SYSTEM    = UTC
MEAN_ELEMENT_THEORY = SGP/SGP4

EPOCH          = 2026-01-11T14:00:01.999872
MEAN_MOTION    = 15.97384304
ECCENTRICITY   = .00019384
INCLINATION    = 42.9992
RA_OF_ASC_NODE = 297.1270
ARG_OF_PERICENTER = 264.4313
MEAN_ANOMALY   = 278.7786

EPHEMERIS_TYPE = 0
CLASSIFICATION_TYPE = U
NORAD_CAT_ID   = 67310
ELEMENT_SET_NO = 999
REV_AT_EPOCH   = 223
BSTAR          = -.26398288E-2
MEAN_MOTION_DOT = -.121204E-1
MEAN_MOTION_DDOT = .45318531E-3

CCSDS_OMM_VERS = 2.0
CREATION_DATE  = 
ORIGINATOR     = 

OBJECT_NAME    = STARLINK-36495
OBJECT_ID      = 2026-002G
CENTER_NAME    = EARTH
REF_FRAME      = TEME
TIME_SYSTEM    = UTC
MEAN_ELEMENT_THEORY = SGP/SGP4

EPOCH          = 2026-01-11T14:00:01.999872
MEAN_MOTION    = 15.97612782
ECCENTRICITY   = .00017743
INCLINATION    = 42.9992
RA_OF_ASC_NODE = 297.1142
ARG_OF_PERICENTER = 264.5740
MEAN_ANOMALY   = 283.6417

EPHEMERIS_TYPE = 0
CLASSIFICATION_TYPE = U
NORAD_CAT_ID   = 67311
ELEMENT_SET_NO = 999
REV_AT_EPOCH   = 239
BSTAR          = -.26557196E-2
MEAN_MOTION_DOT = -.1234633E-1
MEAN_MOTION_DDOT = .46986179E-3

CCSDS_OMM_VERS = 2.0
CREATION_DATE  = 
ORIGINATOR     = 

OBJECT_NAME    = STARLINK-36485
OBJECT_ID      = 2026-002H
CENTER_NAME    = EARTH
REF_FRAME      = TEME
TIME_SYSTEM    = UTC
MEAN_ELEMENT_THEORY = SGP/SGP4

EPOCH          = 2026-01-11T14:00:01.999872
MEAN_MOTION    = 15.97714921
ECCENTRICITY   = .0001822
INCLINATION    = 42.9991
RA_OF_ASC_NODE = 297.1089
ARG_OF_PERICENTER = 262.1980
MEAN_ANOMALY   = 288.1111

EPHEMERIS_TYPE = 0
CLASSIFICATION_TYPE = U
NORAD_CAT_ID   = 67312
ELEMENT_SET_NO = 999
REV_AT_EPOCH   = 223
BSTAR          = -.26594362E-2
MEAN_MOTION_DOT = -.1243332E-1
MEAN_MOTION_DDOT = .47643934E-3

CCSDS_OMM_VERS = 2.0
CREATION_DATE  = 
ORIGINATOR     = 

OBJECT_NAME    = STARLINK-36445
OBJECT_ID      = 2026-002J
CENTER_NAME    = EARTH
REF_FRAME      = TEME
TIME_SYSTEM    = UTC
MEAN_ELEMENT_THEORY = SGP/SGP4

EPOCH          = 2026-01-11T14:00:01.999872
MEAN_MOTION    = 15.97766204
ECCENTRICITY   = .00018794
INCLINATION    = 42.9990
RA_OF_ASC_NODE = 297.1059
ARG_OF_PERICENTER = 261.1011
MEAN_ANOMALY   = 290.3687

EPHEMERIS_TYPE = 0
CLASSIFICATION_TYPE = U
NORAD_CAT_ID   = 67313
ELEMENT_SET_NO = 999
REV_AT_EPOCH   = 239
BSTAR          = -.26606751E-2
MEAN_MOTION_DOT = -.1247443E-1
MEAN_MOTION_DDOT = .47958023E-3

CCSDS_OMM_VERS = 2.0
CREATION_DATE  = 
ORIGINATOR     = 

OBJECT_NAME    = STARLINK-36476
OBJECT_ID      = 2026-002K
CENTER_NAME    = EARTH
REF_FRAME      = TEME
TIME_SYSTEM    = UTC
MEAN_ELEMENT_THEORY = SGP/SGP4

EPOCH          = 2026-01-11T14:00:01.999872
MEAN_MOTION    = 15.97858009
ECCENTRICITY   = .00018185
INCLINATION    = 42.9993
RA_OF_ASC_NODE = 297.1009
ARG_OF_PERICENTER = 263.1755
MEAN_ANOMALY   = 290.3658

EPHEMERIS_TYPE = 0
CLASSIFICATION_TYPE = U
NORAD_CAT_ID   = 67314
ELEMENT_SET_NO = 999
REV_AT_EPOCH   = 223
BSTAR          = -.26295621E-2
MEAN_MOTION_DOT = -.1239268E-1
MEAN_MOTION_DDOT = .47430074E-3

CCSDS_OMM_VERS = 2.0
CREATION_DATE  = 
ORIGINATOR     = 

OBJECT_NAME    = STARLINK-36463
OBJECT_ID      = 2026-002L
CENTER_NAME    = EARTH
REF_FRAME      = TEME
TIME_SYSTEM    = UTC
MEAN_ELEMENT_THEORY = SGP/SGP4

EPOCH          = 2026-01-11T14:00:01.999872
MEAN_MOTION    = 15.98005836
ECCENTRICITY   = .00019161
INCLINATION    = 42.9992
RA_OF_ASC_NODE = 297.0922
ARG_OF_PERICENTER = 258.7431
MEAN_ANOMALY   = 298.0631

EPHEMERIS_TYPE = 0
CLASSIFICATION_TYPE = U
NORAD_CAT_ID   = 67315
ELEMENT_SET_NO = 999
REV_AT_EPOCH   = 229
BSTAR          = -.26147266E-2
MEAN_MOTION_DOT = -.1242493E-1
MEAN_MOTION_DDOT = .47729664E-3

